{
    "links": {
        "self": "http://www.neowsapp.com/rest/v1/neo/3663066?api_key=iIulBulltgU6a56xZRHN4H3l9WmuAYTsLGpBGhQ2"
    },
    "id": "3663066",
    "neo_reference_id": "3663066",
    "name": "(2014 DY112)",
    "designation": "2014 DY112",
    "nasa_jpl_url": "http://ssd.jpl.nasa.gov/sbdb.cgi?sstr=3663066",
    "absolute_magnitude_h": 19.4,
    "estimated_diameter": {
        "kilometers": {
            "estimated_diameter_min": 0.3503926411,
            "estimated_diameter_max": 0.7835017643
        },
        "meters": {
            "estimated_diameter_min": 350.3926411083,
            "estimated_diameter_max": 783.5017643338
        },
        "miles": {
            "estimated_diameter_min": 0.2177238258,
            "estimated_diameter_max": 0.4868452748
        },
        "feet": {
            "estimated_diameter_min": 1149.5821926537,
            "estimated_diameter_max": 2570.543928497
        }
    },
    "is_potentially_hazardous_asteroid": false,
    "close_approach_data": [
        {
            "close_approach_date": "2006-06-12",
            "close_approach_date_full": "2006-Jun-12 04:28",
            "epoch_date_close_approach": 1150086480000,
            "relative_velocity": {
                "kilometers_per_second": "20.7931849296",
                "kilometers_per_hour": "74855.4657466781",
                "miles_per_hour": "46512.2753690956"
            },
            "miss_distance": {
                "astronomical": "0.1494804548",
                "lunar": "58.1478969172",
                "kilometers": "22361957.644711276",
                "miles": "13895076.1571805688"
            },
            "orbiting_body": "Venus"
        },
        {
            "close_approach_date": "2009-01-18",
            "close_approach_date_full": "2009-Jan-18 01:00",
            "epoch_date_close_approach": 1232240400000,
            "relative_velocity": {
                "kilometers_per_second": "18.9265825457",
                "kilometers_per_hour": "68135.6971646316",
                "miles_per_hour": "42336.8724965457"
            },
            "miss_distance": {
                "astronomical": "0.4695190311",
                "lunar": "182.6429030979",
                "kilometers": "70239046.977023757",
                "miles": "43644519.9682395666"
            },
            "orbiting_body": "Earth"
        }
    ],
    "orbital_data": {
        "orbit_id": "10",
        "orbit_determination_date": "2017-04-06 08:42:12",
        "first_observation_date": "2014-02-28",
        "last_observation_date": "2014-03-24",
        "data_arc_in_days": 24,
        "observations_used": 28,
        "orbit_uncertainty": "7",
        "minimum_orbit_intersection": ".117878",
        "jupiter_tisserand_invariant": "3.767",
        "epoch_osculation": "2459000.5",
        "eccentricity": ".5568185966362164",
        "semi_major_axis": "1.78412247224695",
        "inclination": "29.08938525691232",
        "ascending_node_longitude": "349.1246804673625",
        "orbital_period": "870.4331491059728",
        "perihelion_distance": ".7906899010232664",
        "perihelion_argument": "42.50675495003601",
        "aphelion_distance": "2.777555043470633",
        "perihelion_time": "2459143.764073571898",
        "mean_anomaly": "300.7478144199168",
        "mean_motion": ".4135871897454252",
        "equinox": "J2000",
        "orbit_class": {
            "orbit_class_type": "APO",
            "orbit_class_description": "Near-Earth asteroid orbits which cross the Earth’s orbit similar to that of 1862 Apollo",
            "orbit_class_range": "a (semi-major axis) > 1.0 AU; q (perihelion) < 1.017 AU"
        }
    },
    "is_sentry_object": false
}